CYGFM03                 
1 41891U 16078H   17247.10524331  .00000745  00000-0  41444-4 0  9992
2 41891  34.9548 253.9356 0013745 323.8756  36.1026 15.14307063 39814
